{
  "type": "FeatureCollection",
  "features": [
    {
      "type": "Feature",
      "properties": {
        "norad_id": 31663,
        "name": "FENGYUN 1C DEB",
        "group": "fengyun-1c-debris",
        "lat": 77.73413302802257,
        "lon": 117.9845888097403,
        "alt_km": 742.7383975016573,
        "timestamp": "2025-12-10T14:53:37.375033+00:00",
        "meta_object_name": "FENGYUN 1C DEB",
        "meta_object_id": "1999-025CBV",
        "meta_epoch": "2025-12-03T11:38:28.212864",
        "meta_mean_motion": 14.76310711,
        "meta_eccentricity": 0.01897685,
        "meta_inclination": 98.838,
        "meta_ra_of_asc_node": 244.4812,
        "meta_arg_of_pericenter": 266.7407,
        "meta_mean_anomaly": 91.2075,
        "meta_ephemeris_type": 0,
        "meta_classification_type": "U",
        "meta_norad_cat_id": 31663,
        "meta_element_set_no": 999,
        "meta_rev_at_epoch": 99143,
        "meta_bstar": 0.0005527041,
        "meta_mean_motion_dot": 5.081e-05,
        "meta_mean_motion_ddot": 0,
        "tle_line1": "1 31663U 99025CBV 25337.48504876  .00005081  00000+0  55270-3 0  9991",
        "tle_line2": "2 31663  98.8380 244.4812 0189768 266.7407  91.2075 14.76310711991434"
      },
      "geometry": {
        "type": "Point",
        "coordinates": [
          117.9845888097403,
          77.73413302802257
        ]
      }
    },
    {
      "type": "Feature",
      "properties": {
        "norad_id": 31664,
        "name": "FENGYUN 1C DEB",
        "group": "fengyun-1c-debris",
        "lat": 63.69865889009869,
        "lon": -41.968370578241924,
        "alt_km": 865.0507996658162,
        "timestamp": "2025-12-10T14:53:37.375042+00:00",
        "meta_object_name": "FENGYUN 1C DEB",
        "meta_object_id": "1999-025CBW",
        "meta_epoch": "2025-12-09T06:13:44.774400",
        "meta_mean_motion": 14.10289937,
        "meta_eccentricity": 0.0124702,
        "meta_inclination": 98.7511,
        "meta_ra_of_asc_node": 334.8651,
        "meta_arg_of_pericenter": 167.9401,
        "meta_mean_anomaly": 192.4803,
        "meta_ephemeris_type": 0,
        "meta_classification_type": "U",
        "meta_norad_cat_id": 31664,
        "meta_element_set_no": 999,
        "meta_rev_at_epoch": 95952,
        "meta_bstar": 0.00055995,
        "meta_mean_motion_dot": 1.025e-05,
        "meta_mean_motion_ddot": 0,
        "tle_line1": "1 31664U 99025CBW 25343.25954600  .00001025  00000+0  55995-3 0  9996",
        "tle_line2": "2 31664  98.7511 334.8651 0124702 167.9401 192.4803 14.10289937959528"
      },
      "geometry": {
        "type": "Point",
        "coordinates": [
          -41.968370578241924,
          63.69865889009869
        ]
      }
    },
    {
      "type": "Feature",
      "properties": {
        "norad_id": 31665,
        "name": "FENGYUN 1C DEB",
        "group": "fengyun-1c-debris",
        "lat": -69.89629459790729,
        "lon": 51.75386768954839,
        "alt_km": 965.0826124492487,
        "timestamp": "2025-12-10T14:53:37.375055+00:00",
        "meta_object_name": "FENGYUN 1C DEB",
        "meta_object_id": "1999-025CBX",
        "meta_epoch": "2025-12-07T14:24:57.671136",
        "meta_mean_motion": 13.84797658,
        "meta_eccentricity": 0.01894703,
        "meta_inclination": 98.4506,
        "meta_ra_of_asc_node": 25.0684,
        "meta_arg_of_pericenter": 201.0018,
        "meta_mean_anomaly": 158.3283,
        "meta_ephemeris_type": 0,
        "meta_classification_type": "U",
        "meta_norad_cat_id": 31665,
        "meta_element_set_no": 999,
        "meta_rev_at_epoch": 93120,
        "meta_bstar": 0.0019330831,
        "meta_mean_motion_dot": 2.467e-05,
        "meta_mean_motion_ddot": 0,
        "tle_line1": "1 31665U 99025CBX 25341.60066749  .00002467  00000+0  19331-2 0  9996",
        "tle_line2": "2 31665  98.4506  25.0684 0189470 201.0018 158.3283 13.84797658931204"
      },
      "geometry": {
        "type": "Point",
        "coordinates": [
          51.75386768954839,
          -69.89629459790729
        ]
      }
    },
    {
      "type": "Feature",
      "properties": {
        "norad_id": 31666,
        "name": "FENGYUN 1C DEB",
        "group": "fengyun-1c-debris",
        "lat": -39.77465483272349,
        "lon": 140.39731057103666,
        "alt_km": 641.0805286870236,
        "timestamp": "2025-12-10T14:53:37.375065+00:00",
        "meta_object_name": "FENGYUN 1C DEB",
        "meta_object_id": "1999-025CBY",
        "meta_epoch": "2025-12-06T22:02:31.599456",
        "meta_mean_motion": 14.83277188,
        "meta_eccentricity": 0.00254017,
        "meta_inclination": 98.6531,
        "meta_ra_of_asc_node": 129.1065,
        "meta_arg_of_pericenter": 170.033,
        "meta_mean_anomaly": 190.139,
        "meta_ephemeris_type": 0,
        "meta_classification_type": "U",
        "meta_norad_cat_id": 31666,
        "meta_element_set_no": 999,
        "meta_rev_at_epoch": 97185,
        "meta_bstar": 0.0063860544,
        "meta_mean_motion_dot": 0.00052864,
        "meta_mean_motion_ddot": 0,
        "tle_line1": "1 31666U 99025CBY 25340.91842129  .00052864  00000+0  63861-2 0  9997",
        "tle_line2": "2 31666  98.6531 129.1065 0025401 170.0330 190.1390 14.83277188971858"
      },
      "geometry": {
        "type": "Point",
        "coordinates": [
          140.39731057103666,
          -39.77465483272349
        ]
      }
    },
    {
      "type": "Feature",
      "properties": {
        "norad_id": 31667,
        "name": "FENGYUN 1C DEB",
        "group": "fengyun-1c-debris",
        "lat": 10.700774824102247,
        "lon": 18.281511279370267,
        "alt_km": 805.6448495503255,
        "timestamp": "2025-12-10T14:53:37.375075+00:00",
        "meta_object_name": "FENGYUN 1C DEB",
        "meta_object_id": "1999-025CBZ",
        "meta_epoch": "2025-12-08T19:56:03.363072",
        "meta_mean_motion": 14.2349492,
        "meta_eccentricity": 0.00517979,
        "meta_inclination": 99.0845,
        "meta_ra_of_asc_node": 194.7017,
        "meta_arg_of_pericenter": 98.3602,
        "meta_mean_anomaly": 262.3452,
        "meta_ephemeris_type": 0,
        "meta_classification_type": "U",
        "meta_norad_cat_id": 31667,
        "meta_element_set_no": 999,
        "meta_rev_at_epoch": 55937,
        "meta_bstar": 0.00044657651,
        "meta_mean_motion_dot": 9.83e-06,
        "meta_mean_motion_ddot": 0,
        "tle_line1": "1 31667U 99025CBZ 25342.83059448  .00000983  00000+0  44658-3 0  9994",
        "tle_line2": "2 31667  99.0845 194.7017 0051797  98.3602 262.3452 14.23494920559377"
      },
      "geometry": {
        "type": "Point",
        "coordinates": [
          18.281511279370267,
          10.700774824102247
        ]
      }
    },
    {
      "type": "Feature",
      "properties": {
        "norad_id": 31672,
        "name": "FENGYUN 1C DEB",
        "group": "fengyun-1c-debris",
        "lat": 35.47363344470545,
        "lon": 165.63166807152805,
        "alt_km": 668.5007032700651,
        "timestamp": "2025-12-10T14:53:37.375086+00:00",
        "meta_object_name": "FENGYUN 1C DEB",
        "meta_object_id": "1999-025CCE",
        "meta_epoch": "2025-12-09T18:52:12.464832",
        "meta_mean_motion": 14.50862941,
        "meta_eccentricity": 0.0108049,
        "meta_inclination": 98.9574,
        "meta_ra_of_asc_node": 171.1973,
        "meta_arg_of_pericenter": 350.6234,
        "meta_mean_anomaly": 9.2939,
        "meta_ephemeris_type": 0,
        "meta_classification_type": "U",
        "meta_norad_cat_id": 31672,
        "meta_element_set_no": 999,
        "meta_rev_at_epoch": 64828,
        "meta_bstar": 0.002472233,
        "meta_mean_motion_dot": 0.00010473,
        "meta_mean_motion_ddot": 0,
        "tle_line1": "1 31672U 99025CCE 25343.78625538  .00010473  00000+0  24722-2 0  9998",
        "tle_line2": "2 31672  98.9574 171.1973 0108049 350.6234   9.2939 14.50862941648287"
      },
      "geometry": {
        "type": "Point",
        "coordinates": [
          165.63166807152805,
          35.47363344470545
        ]
      }
    },
    {
      "type": "Feature",
      "properties": {
        "norad_id": 31673,
        "name": "FENGYUN 1C DEB",
        "group": "fengyun-1c-debris",
        "lat": 7.8039721529663995,
        "lon": 0.22043829791045233,
        "alt_km": 827.0662047488968,
        "timestamp": "2025-12-10T14:53:37.375095+00:00",
        "meta_object_name": "FENGYUN 1C DEB",
        "meta_object_id": "1999-025CCF",
        "meta_epoch": "2025-12-08T06:45:52.085376",
        "meta_mean_motion": 14.31934796,
        "meta_eccentricity": 0.01258202,
        "meta_inclination": 99.3746,
        "meta_ra_of_asc_node": 176.3979,
        "meta_arg_of_pericenter": 61.7337,
        "meta_mean_anomaly": 299.6476,
        "meta_ephemeris_type": 0,
        "meta_classification_type": "U",
        "meta_norad_cat_id": 31673,
        "meta_element_set_no": 999,
        "meta_rev_at_epoch": 64827,
        "meta_bstar": 0.00037901673,
        "meta_mean_motion_dot": 1.056e-05,
        "meta_mean_motion_ddot": 0,
        "tle_line1": "1 31673U 99025CCF 25342.28185284  .00001056  00000+0  37902-3 0  9994",
        "tle_line2": "2 31673  99.3746 176.3979 0125820  61.7337 299.6476 14.31934796648274"
      },
      "geometry": {
        "type": "Point",
        "coordinates": [
          0.22043829791045233,
          7.8039721529663995
        ]
      }
    }
  ]
}